[
    {
        "Altitude(m)": 607886.7158267895,
        "Argument of Periapsis(deg)": 0.0,
        "Eccentricity": 0.0,
        "Inclination(deg)": 60.0,
        "Latitude(deg)": 40.998509686196876,
        "Longitude(deg)": 24.972859542985514,
        "Mean Anomaly(deg)": 49.090899999999984,
        "RAAN(deg)": 95.0,
        "Satellite Name": "Test1 421",
        "Satellite Number": 421,
        "Semi-Major Axis(m)": 6980739.136638005,
        "Time(s)": 0
    },
    {
        "Altitude(m)": 607987.6303733542,
        "Argument of Periapsis(deg)": 0.00010418945913296404,
        "Eccentricity": 0.0,
        "Inclination(deg)": 60.0,
        "Latitude(deg)": 41.46360097663893,
        "Longitude(deg)": 25.477085947838006,
        "Mean Anomaly(deg)": 49.71100614546182,
        "RAAN(deg)": 94.99957995086027,
        "Satellite Name": "Test1 421",
        "Satellite Number": 421,
        "Semi-Major Axis(m)": 6980739.136638005,
        "Time(s)": 10
    }
]